[
    {
        "Altitude(m)": 554271.0981201645,
        "Argument of Periapsis(deg)": 0.026491964442854003,
        "Eccentricity": 0.0,
        "Inclination(deg)": 53.0,
        "Latitude(deg)": 24.581541570685992,
        "Longitude(deg)": -113.13498341662249,
        "Mean Anomaly(deg)": -328.72442852968965,
        "RAAN(deg)": 329.96057347411204,
        "Satellite Name": "Starlink Shell 1 1473",
        "Satellite Number": 1473,
        "Semi-Major Axis(m)": 6931778.249405717,
        "Time(s)": 760
    },
    {
        "Altitude(m)": 554329.1871402811,
        "Argument of Periapsis(deg)": 0.02684054292236524,
        "Eccentricity": 0.0,
        "Inclination(deg)": 53.0,
        "Latitude(deg)": 25.05361344069708,
        "Longitude(deg)": -112.71946143182554,
        "Mean Anomaly(deg)": -328.0975973261329,
        "RAAN(deg)": 329.9600547040345,
        "Satellite Name": "Starlink Shell 1 1473",
        "Satellite Number": 1473,
        "Semi-Major Axis(m)": 6931778.249405717,
        "Time(s)": 770
    },
    {
        "Altitude(m)": 554388.887626699,
        "Argument of Periapsis(deg)": 0.027189121401876473,
        "Eccentricity": 0.0,
        "Inclination(deg)": 53.0,
        "Latitude(deg)": 25.524240717829986,
        "Longitude(deg)": -112.30043463865772,
        "Mean Anomaly(deg)": -327.4707661225763,
        "RAAN(deg)": 329.9595359339571,
        "Satellite Name": "Starlink Shell 1 1473",
        "Satellite Number": 1473,
        "Semi-Major Axis(m)": 6931778.249405717,
        "Time(s)": 780
    },
    {
        "Altitude(m)": 554450.1507832883,
        "Argument of Periapsis(deg)": 0.02753769988138771,
        "Eccentricity": 0.0,
        "Inclination(deg)": 53.0,
        "Latitude(deg)": 25.993381584437795,
        "Longitude(deg)": -111.87781081380047,
        "Mean Anomaly(deg)": -326.8439349190196,
        "RAAN(deg)": 329.95901716387965,
        "Satellite Name": "Starlink Shell 1 1473",
        "Satellite Number": 1473,
        "Semi-Major Axis(m)": 6931778.249405717,
        "Time(s)": 790
    },
    {
        "Altitude(m)": 554512.9272070996,
        "Argument of Periapsis(deg)": 0.02788627836089895,
        "Eccentricity": 0.0,
        "Inclination(deg)": 53.0,
        "Latitude(deg)": 26.460993341892447,
        "Longitude(deg)": -111.45149695220368,
        "Mean Anomaly(deg)": -326.21710371546277,
        "RAAN(deg)": 329.95849839380213,
        "Satellite Name": "Starlink Shell 1 1473",
        "Satellite Number": 1473,
        "Semi-Major Axis(m)": 6931778.249405717,
        "Time(s)": 800
    },
    {
        "Altitude(m)": 554577.1669149381,
        "Argument of Periapsis(deg)": 0.02823485684041019,
        "Eccentricity": 0.0,
        "Inclination(deg)": 53.0,
        "Latitude(deg)": 26.92703238306792,
        "Longitude(deg)": -111.02139875106545,
        "Mean Anomaly(deg)": -325.5902725119061,
        "RAAN(deg)": 329.95797962372467,
        "Satellite Name": "Starlink Shell 1 1473",
        "Satellite Number": 1473,
        "Semi-Major Axis(m)": 6931778.249405717,
        "Time(s)": 810
    },
    {
        "Altitude(m)": 554642.8193701905,
        "Argument of Periapsis(deg)": 0.028583435319921423,
        "Eccentricity": 0.0,
        "Inclination(deg)": 53.0,
        "Latitude(deg)": 27.391454164303745,
        "Longitude(deg)": -110.58742009578387,
        "Mean Anomaly(deg)": -324.96344130834945,
        "RAAN(deg)": 329.9574608536472,
        "Satellite Name": "Starlink Shell 1 1473",
        "Satellite Number": 1473,
        "Semi-Major Axis(m)": 6931778.249405717,
        "Time(s)": 820
    },
    {
        "Altitude(m)": 554709.8335098568,
        "Argument of Periapsis(deg)": 0.028932013799432665,
        "Eccentricity": 0.0,
        "Inclination(deg)": 53.0,
        "Latitude(deg)": 27.854213176853975,
        "Longitude(deg)": -110.14946406094336,
        "Mean Anomaly(deg)": -324.33661010479267,
        "RAAN(deg)": 329.95694208356974,
        "Satellite Name": "Starlink Shell 1 1473",
        "Satellite Number": 1473,
        "Semi-Major Axis(m)": 6931778.249405717,
        "Time(s)": 830
    },
    {
        "Altitude(m)": 554778.1577718449,
        "Argument of Periapsis(deg)": 0.029280592278943897,
        "Eccentricity": 0.0,
        "Inclination(deg)": 53.0,
        "Latitude(deg)": 28.315262917832573,
        "Longitude(deg)": -109.70743240079166,
        "Mean Anomaly(deg)": -323.70977890123595,
        "RAAN(deg)": 329.9564233134923,
        "Satellite Name": "Starlink Shell 1 1473",
        "Satellite Number": 1473,
        "Semi-Major Axis(m)": 6931778.249405717,
        "Time(s)": 840
    },
    {
        "Altitude(m)": 554847.7401224285,
        "Argument of Periapsis(deg)": 0.029629170758455132,
        "Eccentricity": 0.0,
        "Inclination(deg)": 53.0,
        "Latitude(deg)": 28.7745558606682,
        "Longitude(deg)": -109.26122504229818,
        "Mean Anomaly(deg)": -323.0829476976793,
        "RAAN(deg)": 329.95590454341476,
        "Satellite Name": "Starlink Shell 1 1473",
        "Satellite Number": 1473,
        "Semi-Major Axis(m)": 6931778.249405717,
        "Time(s)": 850
    },
    {
        "Altitude(m)": 554918.5280839441,
        "Argument of Periapsis(deg)": 0.02997774923796637,
        "Eccentricity": 0.0,
        "Inclination(deg)": 53.0,
        "Latitude(deg)": 29.232043425086193,
        "Longitude(deg)": -108.81074126199208,
        "Mean Anomaly(deg)": -322.45611649412257,
        "RAAN(deg)": 329.9553857733373,
        "Satellite Name": "Starlink Shell 1 1473",
        "Satellite Number": 1473,
        "Semi-Major Axis(m)": 6931778.249405717,
        "Time(s)": 860
    },
    {
        "Altitude(m)": 554990.4687626063,
        "Argument of Periapsis(deg)": 0.030326327717477602,
        "Eccentricity": 0.0,
        "Inclination(deg)": 53.0,
        "Latitude(deg)": 29.687675946633693,
        "Longitude(deg)": -108.35587834440581,
        "Mean Anomaly(deg)": -321.8292852905658,
        "RAAN(deg)": 329.9548670032599,
        "Satellite Name": "Starlink Shell 1 1473",
        "Satellite Number": 1473,
        "Semi-Major Axis(m)": 6931778.249405717,
        "Time(s)": 870
    },
    {
        "Altitude(m)": 555063.5088765494,
        "Argument of Periapsis(deg)": 0.030674906196988847,
        "Eccentricity": 0.0,
        "Inclination(deg)": 53.0,
        "Latitude(deg)": 30.141402645775432,
        "Longitude(deg)": -107.89653276529357,
        "Mean Anomaly(deg)": -321.2024540870091,
        "RAAN(deg)": 329.9543482331824,
        "Satellite Name": "Starlink Shell 1 1473",
        "Satellite Number": 1473,
        "Semi-Major Axis(m)": 6931778.249405717,
        "Time(s)": 880
    },
    {
        "Altitude(m)": 555137.5947839536,
        "Argument of Periapsis(deg)": 0.031023484676500086,
        "Eccentricity": 0.0,
        "Inclination(deg)": 53.0,
        "Latitude(deg)": 30.593171596584895,
        "Longitude(deg)": -107.43259969747913,
        "Mean Anomaly(deg)": -320.5756228834524,
        "RAAN(deg)": 329.95382946310485,
        "Satellite Name": "Starlink Shell 1 1473",
        "Satellite Number": 1473,
        "Semi-Major Axis(m)": 6931778.249405717,
        "Time(s)": 890
    },
    {
        "Altitude(m)": 555212.6725113774,
        "Argument of Periapsis(deg)": 0.03137206315601132,
        "Eccentricity": 0.0,
        "Inclination(deg)": 53.0,
        "Latitude(deg)": 31.042929695061932,
        "Longitude(deg)": -106.96397252060302,
        "Mean Anomaly(deg)": -319.9487916798956,
        "RAAN(deg)": 329.95331069302745,
        "Satellite Name": "Starlink Shell 1 1473",
        "Satellite Number": 1473,
        "Semi-Major Axis(m)": 6931778.249405717,
        "Time(s)": 900
    },
    {
        "Altitude(m)": 555288.6877821283,
        "Argument of Periapsis(deg)": 0.03172064163552255,
        "Eccentricity": 0.0,
        "Inclination(deg)": 53.0,
        "Latitude(deg)": 31.490622627115926,
        "Longitude(deg)": -106.49054384795251,
        "Mean Anomaly(deg)": -319.3219604763389,
        "RAAN(deg)": 329.95279192295,
        "Satellite Name": "Starlink Shell 1 1473",
        "Satellite Number": 1473,
        "Semi-Major Axis(m)": 6931778.249405717,
        "Time(s)": 910
    },
    {
        "Altitude(m)": 555365.5860448128,
        "Argument of Periapsis(deg)": 0.0320692201150338,
        "Eccentricity": 0.0,
        "Inclination(deg)": 53.0,
        "Latitude(deg)": 31.936194836253453,
        "Longitude(deg)": -106.01220504496347,
        "Mean Anomaly(deg)": -318.69512927278225,
        "RAAN(deg)": 329.95227315287246,
        "Satellite Name": "Starlink Shell 1 1473",
        "Satellite Number": 1473,
        "Semi-Major Axis(m)": 6931778.249405717,
        "Time(s)": 920
    },
    {
        "Altitude(m)": 555443.3125019332,
        "Argument of Periapsis(deg)": 0.032417798594545036,
        "Eccentricity": 0.0,
        "Inclination(deg)": 53.0,
        "Latitude(deg)": 32.37958949101788,
        "Longitude(deg)": -105.52884575262121,
        "Mean Anomaly(deg)": -318.0682980692255,
        "RAAN(deg)": 329.951754382795,
        "Satellite Name": "Starlink Shell 1 1473",
        "Satellite Number": 1473,
        "Semi-Major Axis(m)": 6931778.249405717,
        "Time(s)": 930
    },
    {
        "Altitude(m)": 555521.8121385579,
        "Argument of Periapsis(deg)": 0.03276637707405627,
        "Eccentricity": 0.0,
        "Inclination(deg)": 53.0,
        "Latitude(deg)": 32.82074845223541,
        "Longitude(deg)": -105.0403549290011,
        "Mean Anomaly(deg)": -317.4414668656688,
        "RAAN(deg)": 329.95123561271754,
        "Satellite Name": "Starlink Shell 1 1473",
        "Satellite Number": 1473,
        "Semi-Major Axis(m)": 6931778.249405717,
        "Time(s)": 940
    }
]